{"type":"FeatureCollection","features":[{"type":"Feature","properties":{"cvegeo":"09002","nombre":"Azcapotzalco","label_lat":19.48581,"label_lng":-99.1842},"geometry":{"type":"Polygon","coordinates":[[[-99.1823,19.50748],[-99.17704,19.50619],[-99.17553,19.50745],[-99.17304,19.50858],[-99.15694,19.50271],[-99.14311,19.46506],[-99.15055,19.46294],[-99.15864,19.46392],[-99.16293,19.45934],[-99.16371,19.45643],[-99.18848,19.46077],[-99.18799,19.46381],[-99.19072,19.46467],[-99.19044,19.47046],[-99.19095,19.47063],[-99.20101,19.47336],[-99.20682,19.47121],[-99.22111,19.47507],[-99.21349,19.49827],[-99.21104,19.50844],[-99.21016,19.51114],[-99.20896,19.51268],[-99.20466,19.51513],[-99.19189,19.51127],[-99.19149,19.51058],[-99.18842,19.50995],[-99.1823,19.50748]]]}},{"type":"Feature","properties":{"cvegeo":"09003","nombre":"Coyoacán","label_lat":19.32801,"label_lng":-99.15105},"geometry":{"type":"Polygon","coordinates":[[[-99.13426,19.35654],[-99.13236,19.35712],[-99.13117,19.35866],[-99.12197,19.35766],[-99.12077,19.35184],[-99.11556,19.34326],[-99.11293,19.33537],[-99.11192,19.33396],[-99.11016,19.33269],[-99.10792,19.32872],[-99.10572,19.3263],[-99.10418,19.32481],[-99.10084,19.32284],[-99.09929,19.3211],[-99.10092,19.30002],[-99.1092,19.29962],[-99.1168,19.30142],[-99.12297,19.30328],[-99.13472,19.30829],[-99.14261,19.2996],[-99.1474,19.30128],[-99.15161,19.298],[-99.15666,19.29683],[-99.15904,19.29974],[-99.16226,19.30127],[-99.17928,19.30344],[-99.19505,19.30205],[-99.19715,19.30256],[-99.20126,19.30464],[-99.20574,19.30568],[-99.20555,19.30672],[-99.20523,19.3063],[-99.20024,19.31116],[-99.20118,19.31145],[-99.20118,19.31195],[-99.19493,19.32203],[-99.1947,19.33023],[-99.19626,19.33268],[-99.19629,19.33363],[-99.19981,19.3335],[-99.19805,19.33548],[-99.19123,19.33687],[-99.19024,19.33798],[-99.19031,19.33867],[-99.18403,19.34365],[-99.18287,19.34658],[-99.18178,19.34734],[-99.18055,19.34723],[-99.17992,19.34964],[-99.17299,19.35675],[-99.1717,19.35957],[-99.16919,19.35859],[-99.13426,19.35654]]]}},{"type":"Feature","properties":{"cvegeo":"09004","nombre":"Cuajimalpa de Morelos","label_lat":19.31867,"label_lng":-99.32323},"geometry":{"type":"Polygon","coordinates":[[[-99.25826,19.40268],[-99.25697,19.40043],[-99.25667,19.40072],[-99.2558,19.40357],[-99.25522,19.40151],[-99.25568,19.39726],[-99.25962,19.39431],[-99.25924,19.3926],[-99.25666,19.39286],[-99.25483,19.3937],[-99.25435,19.39414],[-99.25475,19.39521],[-99.25255,19.39352],[-99.24924,19.39342],[-99.24798,19.39427],[-99.24703,19.39418],[-99.24695,19.39266],[-99.24852,19.39041],[-99.24832,19.38768],[-99.24764,19.38595],[-99.2569,19.37961],[-99.26135,19.37584],[-99.26325,19.37495],[-99.26648,19.37441],[-99.26757,19.37337],[-99.26952,19.37344],[-99.27015,19.37263],[-99.26977,19.37144],[-99.26837,19.37181],[-99.26827,19.37042],[-99.2691,19.36906],[-99.26843,19.36871],[-99.26719,19.36934],[-99.26607,19.37162],[-99.26548,19.37203],[-99.26507,19.37174],[-99.26672,19.36781],[-99.26645,19.36469],[-99.26683,19.36354],[-99.26282,19.36213],[-99.26125,19.36104],[-99.25924,19.35177],[-99.25932,19.35017],[-99.25822,19.34971],[-99.25979,19.34833],[-99.26112,19.34783],[-99.25899,19.34806],[-99.26224,19.3467],[-99.26305,19.34684],[-99.26497,19.34467],[-99.26677,19.34407],[-99.26841,19.34189],[-99.26948,19.34201],[-99.27849,19.33773],[-99.28115,19.33743],[-99.28005,19.33625],[-99.2802,19.33523],[-99.28381,19.3366],[-99.28494,19.33647],[-99.28749,19.33115],[-99.28669,19.32977],[-99.28831,19.33067],[-99.28765,19.33306],[-99.28795,19.33348],[-99.28945,19.3321],[-99.29126,19.32915],[-99.29077,19.32665],[-99.29173,19.32421],[-99.29142,19.32274],[-99.29043,19.32201],[-99.29056,19.32145],[-99.29314,19.32053],[-99.29484,19.31692],[-99.29546,19.31756],[-99.29645,19.31723],[-99.29673,19.31863],[-99.29815,19.31918],[-99.29907,19.32118],[-99.30052,19.32225],[-99.30066,19.32021],[-99.3018,19.3183],[-99.30003,19.31397],[-99.30048,19.31245],[-99.30108,19.3122],[-99.30128,19.30951],[-99.30329,19.31114],[-99.3059,19.30724],[-99.30735,19.30787],[-99.30784,19.30574],[-99.30878,19.30509],[-99.30941,19.30545],[-99.30941,19.30678],[-99.31015,19.30758],[-99.31074,19.30676],[-99.31156,19.3068],[-99.31222,19.30555],[-99.31196,19.30434],[-99.3136,19.30359],[-99.31398,19.30144],[-99.31514,19.30128],[-99.3164,19.30005],[-99.31589,19.29917],[-99.31715,19.29581],[-99.31711,19.2934],[-99.31655,19.29087],[-99.31573,19.2899],[-99.31667,19.28613],[-99.31572,19.2822],[-99.31669,19.2793],[-99.31738,19.27487],[-99.32364,19.26508],[-99.32351,19.25074],[-99.32431,19.23261],[-99.32671,19.23256],[-99.33081,19.23793],[-99.34233,19.24112],[-99.34206,19.24754],[-99.33985,19.25965],[-99.33762,19.26404],[-99.33915,19.26769],[-99.34093,19.26779],[-99.34468,19.26947],[-99.34629,19.27202],[-99.34821,19.27396],[-99.36191,19.27574],[-99.36492,19.27777],[-99.35357,19.29193],[-99.35453,19.29329],[-99.35148,19.29415],[-99.35125,19.29496],[-99.35292,19.29604],[-99.35349,19.2974],[-99.34998,19.29683],[-99.35627,19.30201],[-99.3566,19.30667],[-99.33383,19.33059],[-99.3323,19.33352],[-99.33114,19.33977],[-99.32972,19.34162],[-99.32826,19.3452],[-99.32887,19.34562],[-99.32844,19.34682],[-99.32832,19.34948],[-99.32884,19.35035],[-99.32848,19.35309],[-99.32742,19.35413],[-99.32638,19.35367],[-99.32328,19.35833],[-99.32221,19.35866],[-99.31914,19.35763],[-99.31813,19.35815],[-99.32069,19.36044],[-99.31954,19.36362],[-99.31811,19.36415],[-99.3176,19.36573],[-99.31685,19.3663],[-99.31538,19.36589],[-99.31308,19.37045],[-99.3107,19.3704],[-99.30927,19.37158],[-99.30776,19.37156],[-99.30612,19.3736],[-99.305,19.37683],[-99.30348,19.37783],[-99.3013,19.37708],[-99.30193,19.37575],[-99.30096,19.37177],[-99.30122,19.3697],[-99.29901,19.36751],[-99.29791,19.36932],[-99.29558,19.36907],[-99.29388,19.37014],[-99.29323,19.37191],[-99.29205,19.37328],[-99.29117,19.37348],[-99.29061,19.37502],[-99.28864,19.37511],[-99.28766,19.37668],[-99.28569,19.37644],[-99.28504,19.37905],[-99.28445,19.37976],[-99.2838,19.37967],[-99.28282,19.3814],[-99.28003,19.38227],[-99.27368,19.38703],[-99.27242,19.38968],[-99.26956,19.39038],[-99.26947,19.39136],[-99.26815,19.39245],[-99.2671,19.39207],[-99.26171,19.39599],[-99.26113,19.39964],[-99.25907,19.40146],[-99.25882,19.40375],[-99.25788,19.40484],[-99.25826,19.40268]]]}},{"type":"Feature","properties":{"cvegeo":"09005","nombre":"Gustavo A. Madero","label_lat":19.5188,"label_lng":-99.14398},"geometry":{"type":"Polygon","coordinates":[[[-99.10809,19.56489],[-99.11571,19.55666],[-99.11561,19.55404],[-99.11847,19.55218],[-99.12103,19.54913],[-99.12273,19.54544],[-99.13057,19.53609],[-99.12736,19.53508],[-99.128,19.52453],[-99.12527,19.5205],[-99.12101,19.51629],[-99.11687,19.51323],[-99.11592,19.51305],[-99.1144,19.51106],[-99.11058,19.51117],[-99.10943,19.51031],[-99.10897,19.51111],[-99.10864,19.51049],[-99.10783,19.51046],[-99.10763,19.51102],[-99.1073,19.50968],[-99.10673,19.51044],[-99.10592,19.50988],[-99.10342,19.51128],[-99.09739,19.51263],[-99.07721,19.50388],[-99.06385,19.49878],[-99.06798,19.48908],[-99.06485,19.48183],[-99.06327,19.48126],[-99.0636,19.47997],[-99.06299,19.47982],[-99.06335,19.47861],[-99.05086,19.45018],[-99.05256,19.44842],[-99.06228,19.44479],[-99.07809,19.44974],[-99.08087,19.45015],[-99.08715,19.44576],[-99.09321,19.4516],[-99.09473,19.45175],[-99.09969,19.44994],[-99.10136,19.44994],[-99.11161,19.4537],[-99.11726,19.45806],[-99.12754,19.46152],[-99.13333,19.46485],[-99.1408,19.46535],[-99.14192,19.46582],[-99.14311,19.46506],[-99.16297,19.51796],[-99.16995,19.52205],[-99.17417,19.52346],[-99.17462,19.52406],[-99.17136,19.52719],[-99.17535,19.53009],[-99.17615,19.52887],[-99.17704,19.52933],[-99.176,19.53203],[-99.15915,19.5269],[-99.15679,19.52809],[-99.15859,19.52885],[-99.15584,19.53244],[-99.15851,19.53392],[-99.15804,19.53529],[-99.1541,19.54008],[-99.15108,19.54484],[-99.15864,19.54832],[-99.15852,19.54882],[-99.1592,19.5492],[-99.16089,19.54926],[-99.15756,19.55504],[-99.15809,19.55735],[-99.15614,19.56015],[-99.15423,19.56137],[-99.1528,19.56196],[-99.15089,19.56052],[-99.14918,19.56201],[-99.14599,19.5659],[-99.1458,19.56875],[-99.14475,19.57082],[-99.13956,19.57539],[-99.13913,19.57846],[-99.1379,19.58113],[-99.13375,19.58489],[-99.13375,19.58624],[-99.12698,19.5885],[-99.1237,19.59275],[-99.11945,19.59199],[-99.11788,19.59059],[-99.11859,19.58446],[-99.1169,19.58144],[-99.11465,19.57979],[-99.11181,19.56872],[-99.10809,19.56489]]]}},{"type":"Feature","properties":{"cvegeo":"09006","nombre":"Iztacalco","label_lat":19.39897,"label_lng":-99.0953},"geometry":{"type":"Polygon","coordinates":[[[-99.0575,19.40673],[-99.06084,19.38259],[-99.06636,19.38353],[-99.08401,19.39257],[-99.08458,19.38947],[-99.08879,19.39038],[-99.09564,19.3796],[-99.12247,19.38244],[-99.12253,19.3757],[-99.12969,19.37703],[-99.13414,19.37748],[-99.13548,19.37718],[-99.13103,19.39673],[-99.13093,19.39895],[-99.13717,19.3992],[-99.13658,19.40281],[-99.13563,19.40328],[-99.1303,19.40316],[-99.1188,19.40551],[-99.11456,19.40561],[-99.09796,19.40914],[-99.08022,19.40688],[-99.07823,19.40705],[-99.06949,19.42025],[-99.06794,19.4208],[-99.05791,19.42088],[-99.05604,19.42223],[-99.0575,19.40673]]]}},{"type":"Feature","properties":{"cvegeo":"09007","nombre":"Iztapalapa","label_lat":19.34279,"label_lng":-99.04686},"geometry":{"type":"Polygon","coordinates":[[[-99.01691,19.38187],[-98.99179,19.36746],[-98.99346,19.36038],[-98.99455,19.35814],[-98.97879,19.34329],[-98.97432,19.33702],[-98.96044,19.32537],[-98.96827,19.32572],[-98.96895,19.32474],[-98.97118,19.32543],[-98.97532,19.32564],[-98.97651,19.32425],[-98.97658,19.32494],[-98.97739,19.32522],[-98.97749,19.32477],[-98.9782,19.32533],[-98.97855,19.3239],[-98.98019,19.32414],[-98.9806,19.32465],[-98.97956,19.32578],[-98.97986,19.32614],[-99.00135,19.32713],[-99.03873,19.31572],[-99.03958,19.31468],[-99.04043,19.31541],[-99.0436,19.3122],[-99.04493,19.31286],[-99.04661,19.31487],[-99.04886,19.31188],[-99.05042,19.31295],[-99.05226,19.31076],[-99.05377,19.31186],[-99.05986,19.30444],[-99.06339,19.30568],[-99.06477,19.30164],[-99.06263,19.2973],[-99.06212,19.29482],[-99.06155,19.29409],[-99.06162,19.29266],[-99.06896,19.28495],[-99.07493,19.2897],[-99.0977,19.31717],[-99.09868,19.31867],[-99.09879,19.32045],[-99.09995,19.32192],[-99.10572,19.3263],[-99.10792,19.32872],[-99.11016,19.33269],[-99.11215,19.33422],[-99.11376,19.33692],[-99.11447,19.34079],[-99.11556,19.34326],[-99.12023,19.35056],[-99.12145,19.35392],[-99.12197,19.35766],[-99.13117,19.35866],[-99.13212,19.3573],[-99.13367,19.35655],[-99.13988,19.35714],[-99.13542,19.3773],[-99.12969,19.37703],[-99.12253,19.3757],[-99.12247,19.38244],[-99.09564,19.3796],[-99.08879,19.39038],[-99.08458,19.38947],[-99.08401,19.39257],[-99.06636,19.38353],[-99.06084,19.38259],[-99.05826,19.40073],[-99.01691,19.38187]]]}},{"type":"Feature","properties":{"cvegeo":"09008","nombre":"La Magdalena Contreras","label_lat":19.27547,"label_lng":-99.26333},"geometry":{"type":"Polygon","coordinates":[[[-99.20751,19.33781],[-99.20867,19.33597],[-99.2071,19.33654],[-99.20665,19.33622],[-99.20936,19.33328],[-99.21278,19.32679],[-99.22122,19.32009],[-99.22142,19.31832],[-99.21992,19.31226],[-99.22046,19.31132],[-99.22493,19.31059],[-99.22516,19.30995],[-99.22761,19.30806],[-99.22774,19.30696],[-99.2319,19.30504],[-99.23297,19.30181],[-99.23222,19.30147],[-99.23339,19.30081],[-99.23336,19.30007],[-99.2327,19.29989],[-99.23248,19.29787],[-99.23329,19.29659],[-99.23547,19.29499],[-99.23609,19.29511],[-99.23596,19.29445],[-99.23721,19.29426],[-99.23869,19.2947],[-99.24138,19.29402],[-99.24191,19.29314],[-99.24154,19.29286],[-99.24224,19.2929],[-99.24266,19.29227],[-99.24299,19.29143],[-99.24275,19.28936],[-99.24107,19.28807],[-99.2408,19.28699],[-99.24296,19.28414],[-99.24195,19.28301],[-99.24354,19.28219],[-99.24335,19.28107],[-99.24491,19.28013],[-99.24536,19.27696],[-99.24488,19.27621],[-99.24345,19.27565],[-99.24461,19.2729],[-99.24382,19.27179],[-99.24346,19.26979],[-99.24599,19.26753],[-99.24597,19.26637],[-99.24699,19.26559],[-99.24708,19.26475],[-99.24552,19.26293],[-99.24593,19.2612],[-99.24723,19.26027],[-99.24573,19.25894],[-99.24388,19.2592],[-99.24538,19.25734],[-99.24481,19.25635],[-99.24524,19.25525],[-99.24458,19.25273],[-99.24528,19.25027],[-99.24738,19.24885],[-99.248,19.24673],[-99.24889,19.24674],[-99.25034,19.24569],[-99.25014,19.24469],[-99.25176,19.24243],[-99.25099,19.24045],[-99.25286,19.23759],[-99.25267,19.23609],[-99.25342,19.23481],[-99.25609,19.23254],[-99.25726,19.23247],[-99.25889,19.23051],[-99.26376,19.22849],[-99.26948,19.22449],[-99.27067,19.2242],[-99.27415,19.22104],[-99.2742,19.21815],[-99.27623,19.21642],[-99.27733,19.21471],[-99.28309,19.21305],[-99.28463,19.21369],[-99.28782,19.21312],[-99.29143,19.2146],[-99.29239,19.21382],[-99.29314,19.2139],[-99.29494,19.21533],[-99.2967,19.21776],[-99.29779,19.21812],[-99.30026,19.21774],[-99.30142,19.21822],[-99.3057,19.22223],[-99.30862,19.22361],[-99.30962,19.22475],[-99.31505,19.22689],[-99.31555,19.22739],[-99.31534,19.22919],[-99.32129,19.23266],[-99.32225,19.23264],[-99.32316,19.23923],[-99.32005,19.24314],[-99.31871,19.24321],[-99.31763,19.24449],[-99.31784,19.24712],[-99.31713,19.24855],[-99.31707,19.2503],[-99.31643,19.25103],[-99.31591,19.25091],[-99.31593,19.2528],[-99.31476,19.25498],[-99.31536,19.25636],[-99.3102,19.25727],[-99.30877,19.25809],[-99.30529,19.25794],[-99.30236,19.25893],[-99.30087,19.26104],[-99.29977,19.26088],[-99.29798,19.26145],[-99.2968,19.26311],[-99.29423,19.26459],[-99.29401,19.26602],[-99.29257,19.26831],[-99.28962,19.27028],[-99.28752,19.27017],[-99.28618,19.27068],[-99.28524,19.2731],[-99.28332,19.27509],[-99.28317,19.27573],[-99.28396,19.27696],[-99.2815,19.27949],[-99.28113,19.28062],[-99.27919,19.28167],[-99.27822,19.28141],[-99.27788,19.28259],[-99.27331,19.28519],[-99.27616,19.2891],[-99.27245,19.29421],[-99.27146,19.29917],[-99.27055,19.29968],[-99.26973,19.30117],[-99.27221,19.30246],[-99.27041,19.30412],[-99.26842,19.30511],[-99.27,19.30577],[-99.27109,19.30702],[-99.27133,19.30825],[-99.27005,19.31152],[-99.27054,19.31193],[-99.26953,19.31356],[-99.26764,19.3142],[-99.26752,19.3138],[-99.26589,19.31343],[-99.26451,19.31531],[-99.26176,19.31769],[-99.26037,19.32056],[-99.25761,19.32276],[-99.25591,19.32572],[-99.25468,19.32676],[-99.24995,19.32703],[-99.24834,19.32779],[-99.24422,19.32856],[-99.24276,19.328],[-99.24032,19.32442],[-99.23731,19.3247],[-99.23348,19.32722],[-99.23119,19.32983],[-99.22715,19.3316],[-99.2242,19.33236],[-99.22421,19.33275],[-99.22188,19.3337],[-99.21713,19.33469],[-99.21486,19.33638],[-99.21147,19.33619],[-99.20838,19.33785],[-99.20751,19.33781]]]}},{"type":"Feature","properties":{"cvegeo":"09009","nombre":"Milpa Alta","label_lat":19.13803,"label_lng":-99.05891},"geometry":{"type":"Polygon","coordinates":[[[-98.99717,19.22747],[-98.99746,19.22649],[-98.99642,19.22619],[-98.99637,19.22521],[-98.99578,19.22504],[-98.99526,19.22751],[-98.99372,19.22747],[-98.99326,19.22494],[-98.99123,19.22479],[-98.99107,19.22559],[-98.99055,19.22578],[-98.97814,19.21507],[-98.97361,19.21408],[-98.97222,19.21251],[-98.96837,19.21049],[-98.96683,19.209],[-98.96742,19.20732],[-98.96722,19.20625],[-98.96967,19.20425],[-98.96769,19.20313],[-98.96702,19.19991],[-98.96769,19.18974],[-98.9664,19.18703],[-98.95984,19.17917],[-98.95617,19.17676],[-98.95238,19.16863],[-98.96736,19.16444],[-98.95462,19.14952],[-98.96645,19.14387],[-98.96511,19.14041],[-98.96108,19.13303],[-98.9575,19.12238],[-98.95869,19.11364],[-98.9584,19.11131],[-98.95895,19.10904],[-98.95906,19.10428],[-98.96123,19.09558],[-98.96326,19.09206],[-98.96571,19.08586],[-98.96828,19.08314],[-98.97369,19.07955],[-98.97899,19.07445],[-98.98359,19.07876],[-99.02899,19.08537],[-99.0432,19.07575],[-99.05979,19.04823],[-99.12543,19.06206],[-99.13537,19.08929],[-99.13647,19.08938],[-99.16329,19.11749],[-99.155,19.13531],[-99.15249,19.14212],[-99.15195,19.15076],[-99.1496,19.16031],[-99.1468,19.15994],[-99.14449,19.15866],[-99.1404,19.15221],[-99.1324,19.14861],[-99.10573,19.19734],[-99.10517,19.19827],[-99.10469,19.1982],[-99.10479,19.19896],[-99.10224,19.20066],[-99.10174,19.20481],[-99.10012,19.20624],[-99.09991,19.20738],[-99.0992,19.20814],[-99.09568,19.20863],[-99.09455,19.21154],[-99.09317,19.21093],[-99.09096,19.21102],[-99.03019,19.22363],[-99.0001,19.22631],[-99.00312,19.22706],[-99.00298,19.22757],[-98.99984,19.22678],[-98.99956,19.22756],[-98.99717,19.22747]]]}},{"type":"Feature","properties":{"cvegeo":"09010","nombre":"Álvaro Obregón","label_lat":19.31815,"label_lng":-99.27783},"geometry":{"type":"Polygon","coordinates":[[[-99.19061,19.39932],[-99.18841,19.39323],[-99.19173,19.38268],[-99.19162,19.37767],[-99.19213,19.3734],[-99.19165,19.37187],[-99.19176,19.36925],[-99.19076,19.36688],[-99.19109,19.36349],[-99.188,19.36294],[-99.18568,19.36172],[-99.1837,19.36172],[-99.18154,19.36282],[-99.17979,19.36303],[-99.17773,19.36514],[-99.17327,19.3606],[-99.1717,19.35957],[-99.17299,19.35675],[-99.17992,19.34964],[-99.18055,19.34723],[-99.18178,19.34734],[-99.18287,19.34658],[-99.18403,19.34365],[-99.19031,19.33867],[-99.19024,19.33798],[-99.19123,19.33687],[-99.19805,19.33548],[-99.19981,19.3335],[-99.19629,19.33363],[-99.19626,19.33268],[-99.1947,19.33023],[-99.19498,19.32184],[-99.20118,19.31195],[-99.20118,19.31145],[-99.20024,19.31116],[-99.20523,19.3063],[-99.20555,19.30672],[-99.20574,19.30568],[-99.21592,19.30788],[-99.21822,19.30988],[-99.22051,19.31371],[-99.22147,19.31869],[-99.22114,19.32027],[-99.21278,19.32679],[-99.20936,19.33328],[-99.20665,19.33622],[-99.2071,19.33654],[-99.20867,19.33597],[-99.20751,19.33781],[-99.20838,19.33785],[-99.21147,19.33619],[-99.21486,19.33638],[-99.21713,19.33469],[-99.2224,19.33353],[-99.22421,19.33275],[-99.2242,19.33236],[-99.23119,19.32983],[-99.23348,19.32722],[-99.23731,19.3247],[-99.24032,19.32442],[-99.24276,19.328],[-99.24422,19.32856],[-99.24834,19.32779],[-99.24995,19.32703],[-99.25517,19.32656],[-99.25752,19.32286],[-99.26037,19.32056],[-99.26176,19.31769],[-99.26451,19.31531],[-99.26589,19.31343],[-99.26752,19.3138],[-99.26764,19.3142],[-99.26843,19.31401],[-99.26953,19.31356],[-99.27054,19.31193],[-99.27005,19.31152],[-99.27114,19.30905],[-99.27083,19.30886],[-99.27133,19.30825],[-99.2712,19.30722],[-99.27,19.30577],[-99.26842,19.30511],[-99.27041,19.30412],[-99.27221,19.30246],[-99.26973,19.30117],[-99.27055,19.29968],[-99.27146,19.29917],[-99.27245,19.29421],[-99.27616,19.2891],[-99.27331,19.28519],[-99.27788,19.28259],[-99.27822,19.28141],[-99.27919,19.28167],[-99.28113,19.28062],[-99.2815,19.27949],[-99.28396,19.27696],[-99.28317,19.27573],[-99.28332,19.27509],[-99.28524,19.2731],[-99.28618,19.27068],[-99.28752,19.27017],[-99.28962,19.27028],[-99.29257,19.26831],[-99.29401,19.26602],[-99.29423,19.26459],[-99.2968,19.26311],[-99.29798,19.26145],[-99.29977,19.26088],[-99.30087,19.26104],[-99.30236,19.25893],[-99.30529,19.25794],[-99.30877,19.25809],[-99.3102,19.25727],[-99.31536,19.25636],[-99.31476,19.25498],[-99.31593,19.2528],[-99.31591,19.25091],[-99.31643,19.25103],[-99.31707,19.2503],[-99.31713,19.24855],[-99.31784,19.24712],[-99.31763,19.24449],[-99.31871,19.24321],[-99.32005,19.24314],[-99.32266,19.2403],[-99.32331,19.23855],[-99.32272,19.23751],[-99.32299,19.23591],[-99.32225,19.23264],[-99.32431,19.23261],[-99.32351,19.25074],[-99.32364,19.26508],[-99.31738,19.27487],[-99.31669,19.2793],[-99.31572,19.2822],[-99.31667,19.28613],[-99.31573,19.2899],[-99.31655,19.29087],[-99.31711,19.2934],[-99.31715,19.29581],[-99.31589,19.29917],[-99.3164,19.30005],[-99.31514,19.30128],[-99.31398,19.30144],[-99.3136,19.30359],[-99.31196,19.30434],[-99.31222,19.30555],[-99.31156,19.3068],[-99.31074,19.30676],[-99.31015,19.30758],[-99.30941,19.30678],[-99.30941,19.30545],[-99.30878,19.30509],[-99.30784,19.30574],[-99.30735,19.30787],[-99.3059,19.30724],[-99.30329,19.31114],[-99.30128,19.30951],[-99.30108,19.3122],[-99.30048,19.31245],[-99.30003,19.31397],[-99.3018,19.3183],[-99.30066,19.32021],[-99.30052,19.32225],[-99.29907,19.32118],[-99.29815,19.31918],[-99.29673,19.31863],[-99.29645,19.31723],[-99.29546,19.31756],[-99.29484,19.31692],[-99.29314,19.32053],[-99.29056,19.32145],[-99.29043,19.32201],[-99.29142,19.32274],[-99.29173,19.32421],[-99.29077,19.32665],[-99.29126,19.32915],[-99.28945,19.3321],[-99.28795,19.33348],[-99.28765,19.33306],[-99.28831,19.33067],[-99.28669,19.32977],[-99.28749,19.33115],[-99.28494,19.33647],[-99.28381,19.3366],[-99.2802,19.33523],[-99.28005,19.33625],[-99.28115,19.33743],[-99.27849,19.33773],[-99.26948,19.34201],[-99.26841,19.34189],[-99.26677,19.34407],[-99.26497,19.34467],[-99.26305,19.34684],[-99.26224,19.3467],[-99.25899,19.34806],[-99.26112,19.34783],[-99.25979,19.34833],[-99.2582,19.34976],[-99.25932,19.35017],[-99.25924,19.35177],[-99.26125,19.36104],[-99.26282,19.36213],[-99.26683,19.36354],[-99.26645,19.36469],[-99.26672,19.36781],[-99.26507,19.37174],[-99.26548,19.37203],[-99.26607,19.37162],[-99.26719,19.36934],[-99.26843,19.36871],[-99.2691,19.36906],[-99.26827,19.37042],[-99.26837,19.37181],[-99.26977,19.37144],[-99.26997,19.37314],[-99.2689,19.37355],[-99.26757,19.37337],[-99.26648,19.37441],[-99.26325,19.37495],[-99.26135,19.37584],[-99.2569,19.37961],[-99.25003,19.38403],[-99.24599,19.38723],[-99.24319,19.38692],[-99.2421,19.38735],[-99.23966,19.38913],[-99.23901,19.39073],[-99.23891,19.39267],[-99.2376,19.39356],[-99.23603,19.39356],[-99.23257,19.3949],[-99.22734,19.39579],[-99.22357,19.39585],[-99.2105,19.40042],[-99.20189,19.40155],[-99.19806,19.403],[-99.19219,19.40374],[-99.19222,19.40113],[-99.19061,19.39932]]]}},{"type":"Feature","properties":{"cvegeo":"09011","nombre":"Tláhuac","label_lat":19.26927,"label_lng":-99.00403},"geometry":{"type":"Polygon","coordinates":[[[-98.9788,19.32392],[-98.9782,19.32533],[-98.97749,19.32477],[-98.97739,19.32522],[-98.97658,19.32494],[-98.97651,19.32425],[-98.97532,19.32564],[-98.97118,19.32543],[-98.96895,19.32474],[-98.96827,19.32572],[-98.96634,19.32567],[-98.96044,19.32537],[-98.95789,19.32322],[-98.96296,19.31672],[-98.96477,19.30688],[-98.96627,19.30596],[-98.96722,19.30597],[-98.97142,19.27836],[-98.97491,19.25949],[-98.97652,19.25312],[-98.96598,19.24994],[-98.96858,19.23222],[-98.9403,19.22324],[-98.94255,19.21561],[-98.95108,19.21818],[-98.95327,19.21549],[-98.95289,19.21527],[-98.95366,19.21544],[-98.95394,19.21464],[-98.95745,19.21513],[-98.96002,19.21441],[-98.95974,19.21387],[-98.96269,19.21414],[-98.96353,19.21304],[-98.9643,19.21324],[-98.96852,19.21057],[-98.97149,19.21197],[-98.97434,19.21444],[-98.97814,19.21507],[-98.99055,19.22578],[-98.99107,19.22559],[-98.99123,19.22479],[-98.99326,19.22494],[-98.99372,19.22747],[-98.99526,19.22751],[-98.99578,19.22504],[-98.99637,19.22521],[-98.99642,19.22619],[-98.99746,19.22649],[-98.99717,19.22747],[-98.99956,19.22756],[-98.99984,19.22678],[-99.00298,19.22757],[-99.00312,19.22706],[-99.0001,19.22631],[-99.03019,19.22363],[-99.01548,19.24085],[-99.01391,19.24511],[-99.01256,19.24473],[-99.01229,19.24651],[-99.01118,19.24605],[-99.00888,19.25067],[-99.00794,19.25054],[-99.00704,19.2516],[-99.01169,19.25601],[-99.01283,19.25794],[-99.01651,19.25995],[-99.01973,19.26115],[-99.02074,19.26095],[-99.02583,19.2622],[-99.02685,19.26176],[-99.02981,19.26259],[-99.03106,19.26493],[-99.03731,19.2717],[-99.04144,19.27378],[-99.04828,19.27598],[-99.05449,19.27936],[-99.05759,19.27963],[-99.06436,19.28199],[-99.06896,19.28495],[-99.06162,19.29266],[-99.06155,19.29409],[-99.06212,19.29482],[-99.06263,19.2973],[-99.06477,19.30164],[-99.06339,19.30568],[-99.05986,19.30444],[-99.05377,19.31186],[-99.05226,19.31076],[-99.05042,19.31295],[-99.04886,19.31188],[-99.04661,19.31487],[-99.04493,19.31286],[-99.0436,19.3122],[-99.04043,19.31541],[-99.03958,19.31468],[-99.03873,19.31572],[-99.00135,19.32713],[-98.97986,19.32614],[-98.97956,19.32578],[-98.9806,19.32465],[-98.98019,19.32414],[-98.9788,19.32392]]]}},{"type":"Feature","properties":{"cvegeo":"09012","nombre":"Tlalpan","label_lat":19.20091,"label_lng":-99.21701},"geometry":{"type":"Polygon","coordinates":[[[-99.1967,19.3024],[-99.19401,19.30201],[-99.17928,19.30344],[-99.16285,19.30137],[-99.15971,19.30024],[-99.15666,19.29683],[-99.15161,19.298],[-99.1474,19.30128],[-99.14261,19.2996],[-99.13472,19.30829],[-99.12297,19.30328],[-99.1168,19.30142],[-99.1092,19.29962],[-99.10092,19.30002],[-99.10136,19.2952],[-99.10501,19.29351],[-99.12492,19.28524],[-99.1351,19.28246],[-99.14105,19.28253],[-99.14208,19.27394],[-99.14118,19.27353],[-99.14213,19.27069],[-99.14279,19.2705],[-99.14336,19.26947],[-99.14394,19.26954],[-99.14491,19.26744],[-99.14322,19.26723],[-99.14332,19.26652],[-99.1424,19.26662],[-99.14236,19.26023],[-99.14017,19.25786],[-99.14079,19.257],[-99.13939,19.25469],[-99.14015,19.2519],[-99.14125,19.25064],[-99.14172,19.24899],[-99.14036,19.24798],[-99.13891,19.24596],[-99.14038,19.24359],[-99.142,19.24364],[-99.14232,19.24416],[-99.14425,19.24474],[-99.144,19.23968],[-99.14611,19.23933],[-99.14668,19.24033],[-99.14751,19.24026],[-99.14444,19.23452],[-99.14632,19.2342],[-99.14787,19.23455],[-99.14839,19.23497],[-99.14795,19.23606],[-99.14823,19.23631],[-99.14953,19.23468],[-99.14946,19.23403],[-99.15068,19.23469],[-99.1506,19.23256],[-99.15173,19.23081],[-99.15337,19.22598],[-99.15273,19.22483],[-99.15118,19.2244],[-99.15114,19.22341],[-99.15161,19.22335],[-99.15247,19.22053],[-99.15293,19.22058],[-99.15351,19.2218],[-99.15439,19.22064],[-99.13831,19.21573],[-99.13281,19.20998],[-99.13242,19.20648],[-99.13092,19.2042],[-99.13008,19.20384],[-99.13029,19.20317],[-99.12931,19.203],[-99.12953,19.20038],[-99.12909,19.19944],[-99.1295,19.19727],[-99.13044,19.1962],[-99.12994,19.19535],[-99.13077,19.19294],[-99.13067,19.19131],[-99.12756,19.18829],[-99.12707,19.18726],[-99.12896,19.18465],[-99.13009,19.18393],[-99.13033,19.18255],[-99.13239,19.17853],[-99.13206,19.17512],[-99.12994,19.17224],[-99.13054,19.17139],[-99.13031,19.1659],[-99.13269,19.16013],[-99.13279,19.15488],[-99.1325,19.15302],[-99.13024,19.15254],[-99.1324,19.14861],[-99.1404,19.15221],[-99.14449,19.15866],[-99.1468,19.15994],[-99.1496,19.16031],[-99.15195,19.15076],[-99.15249,19.14212],[-99.155,19.13531],[-99.16329,19.11749],[-99.13647,19.08938],[-99.22677,19.09606],[-99.27869,19.1317],[-99.2876,19.1466],[-99.29559,19.17288],[-99.30132,19.18841],[-99.30275,19.19085],[-99.30468,19.20264],[-99.30612,19.20614],[-99.30713,19.21373],[-99.31624,19.2215],[-99.31555,19.22739],[-99.31297,19.2258],[-99.31143,19.22573],[-99.30962,19.22475],[-99.30862,19.22361],[-99.3057,19.22223],[-99.30142,19.21822],[-99.30026,19.21774],[-99.29779,19.21812],[-99.2967,19.21776],[-99.29494,19.21533],[-99.29275,19.21377],[-99.29143,19.2146],[-99.28782,19.21312],[-99.28463,19.21369],[-99.28239,19.21308],[-99.27733,19.21471],[-99.27623,19.21642],[-99.2742,19.21815],[-99.27415,19.22104],[-99.27067,19.2242],[-99.26948,19.22449],[-99.26376,19.22849],[-99.25889,19.23051],[-99.25726,19.23247],[-99.25609,19.23254],[-99.25312,19.2351],[-99.25267,19.23609],[-99.25286,19.23759],[-99.25099,19.24045],[-99.25176,19.24243],[-99.25014,19.24469],[-99.25034,19.24569],[-99.24889,19.24674],[-99.248,19.24673],[-99.24738,19.24885],[-99.24522,19.25037],[-99.24458,19.25273],[-99.24524,19.25525],[-99.24481,19.25635],[-99.24538,19.25734],[-99.24388,19.2592],[-99.24573,19.25894],[-99.24723,19.26027],[-99.24593,19.2612],[-99.24552,19.26293],[-99.24708,19.26475],[-99.24699,19.26559],[-99.24597,19.26637],[-99.24599,19.26753],[-99.24348,19.26968],[-99.24376,19.27163],[-99.24461,19.2729],[-99.24345,19.27565],[-99.24535,19.27679],[-99.24493,19.28007],[-99.24335,19.28107],[-99.24354,19.28219],[-99.24195,19.28301],[-99.24296,19.28414],[-99.2408,19.28699],[-99.24107,19.28807],[-99.24275,19.28936],[-99.24299,19.29143],[-99.24231,19.29285],[-99.24154,19.29286],[-99.24191,19.29314],[-99.24138,19.29402],[-99.23869,19.2947],[-99.23721,19.29426],[-99.23596,19.29445],[-99.23609,19.29511],[-99.23547,19.29499],[-99.23318,19.2967],[-99.23248,19.29787],[-99.2327,19.29989],[-99.23336,19.30007],[-99.23339,19.30081],[-99.23222,19.30147],[-99.23297,19.30181],[-99.2319,19.30504],[-99.22774,19.30696],[-99.22761,19.30806],[-99.22516,19.30995],[-99.22493,19.31059],[-99.2207,19.31113],[-99.21992,19.31226],[-99.21779,19.30935],[-99.21539,19.30762],[-99.20222,19.30496],[-99.1967,19.3024]]]}},{"type":"Feature","properties":{"cvegeo":"09013","nombre":"Xochimilco","label_lat":19.23677,"label_lng":-99.08233},"geometry":{"type":"Polygon","coordinates":[[[-99.09879,19.32045],[-99.09868,19.31867],[-99.0977,19.31717],[-99.08765,19.30468],[-99.08587,19.30319],[-99.07493,19.2897],[-99.0683,19.28444],[-99.06436,19.28199],[-99.05759,19.27963],[-99.05449,19.27936],[-99.04828,19.27598],[-99.04144,19.27378],[-99.03731,19.2717],[-99.03106,19.26493],[-99.02981,19.26259],[-99.02685,19.26176],[-99.02583,19.2622],[-99.02074,19.26095],[-99.01973,19.26115],[-99.01651,19.25995],[-99.01283,19.25794],[-99.01169,19.25601],[-99.00704,19.2516],[-99.00794,19.25054],[-99.00888,19.25067],[-99.01118,19.24605],[-99.01229,19.24651],[-99.01256,19.24473],[-99.01391,19.24511],[-99.01548,19.24085],[-99.03019,19.22363],[-99.09096,19.21102],[-99.09317,19.21093],[-99.09455,19.21154],[-99.09568,19.20863],[-99.09926,19.2081],[-99.10012,19.20624],[-99.10174,19.20481],[-99.10224,19.20066],[-99.10479,19.19896],[-99.10469,19.1982],[-99.10517,19.19827],[-99.10573,19.19734],[-99.13024,19.15254],[-99.13165,19.15263],[-99.13259,19.15322],[-99.13269,19.16013],[-99.13031,19.1659],[-99.13054,19.17139],[-99.12994,19.17236],[-99.13206,19.17512],[-99.13239,19.17853],[-99.13033,19.18255],[-99.13009,19.18393],[-99.12896,19.18465],[-99.12707,19.18726],[-99.12756,19.18829],[-99.13067,19.19131],[-99.13077,19.19294],[-99.12994,19.19535],[-99.13044,19.1962],[-99.1295,19.19727],[-99.12909,19.19944],[-99.12953,19.20038],[-99.12931,19.203],[-99.13029,19.20317],[-99.13008,19.20384],[-99.13092,19.2042],[-99.13242,19.20648],[-99.13281,19.20998],[-99.13831,19.21573],[-99.15439,19.22064],[-99.15351,19.2218],[-99.15293,19.22058],[-99.15247,19.22053],[-99.15161,19.22335],[-99.15114,19.22341],[-99.15118,19.2244],[-99.15273,19.22483],[-99.15337,19.22598],[-99.15173,19.23081],[-99.1506,19.23256],[-99.15068,19.23469],[-99.14946,19.23403],[-99.14953,19.23468],[-99.14823,19.23631],[-99.14795,19.23606],[-99.14839,19.23497],[-99.14787,19.23455],[-99.14632,19.2342],[-99.14444,19.23452],[-99.14751,19.24026],[-99.14668,19.24033],[-99.14611,19.23933],[-99.144,19.23968],[-99.14425,19.24474],[-99.14232,19.24416],[-99.142,19.24364],[-99.14038,19.24359],[-99.13891,19.24596],[-99.14036,19.24798],[-99.14172,19.24899],[-99.14125,19.25064],[-99.14015,19.2519],[-99.13939,19.25469],[-99.14079,19.257],[-99.14017,19.25786],[-99.14236,19.26023],[-99.1424,19.26662],[-99.14332,19.26652],[-99.14322,19.26723],[-99.14491,19.26744],[-99.14394,19.26954],[-99.14336,19.26947],[-99.14279,19.2705],[-99.14213,19.27069],[-99.14118,19.27353],[-99.14208,19.27394],[-99.14105,19.28253],[-99.1351,19.28246],[-99.12492,19.28524],[-99.10136,19.2952],[-99.09929,19.32045],[-99.09879,19.32045]]]}},{"type":"Feature","properties":{"cvegeo":"09014","nombre":"Benito Juárez","label_lat":19.38047,"label_lng":-99.16324},"geometry":{"type":"Polygon","coordinates":[[[-99.15695,19.40398],[-99.1374,19.40346],[-99.13658,19.40281],[-99.13717,19.3992],[-99.13093,19.39895],[-99.13103,19.39673],[-99.13983,19.35691],[-99.16977,19.35866],[-99.17307,19.36042],[-99.17773,19.36514],[-99.17979,19.36303],[-99.18154,19.36282],[-99.1837,19.36172],[-99.18568,19.36172],[-99.188,19.36294],[-99.19109,19.36349],[-99.19076,19.36688],[-99.19176,19.36925],[-99.19165,19.37187],[-99.19213,19.3734],[-99.19162,19.37767],[-99.19173,19.38268],[-99.18841,19.39323],[-99.18905,19.39559],[-99.18637,19.39565],[-99.18209,19.39696],[-99.17552,19.39809],[-99.15695,19.40398]]]}},{"type":"Feature","properties":{"cvegeo":"09015","nombre":"Cuauhtémoc","label_lat":19.43297,"label_lng":-99.14816},"geometry":{"type":"Polygon","coordinates":[[[-99.13333,19.46485],[-99.12754,19.46152],[-99.12223,19.45978],[-99.12332,19.45815],[-99.12588,19.44818],[-99.12586,19.4474],[-99.12307,19.44249],[-99.126,19.42287],[-99.12713,19.42038],[-99.12819,19.41376],[-99.12569,19.40433],[-99.1303,19.40316],[-99.13541,19.40336],[-99.13643,19.40281],[-99.13763,19.40348],[-99.15632,19.40406],[-99.17043,19.39979],[-99.17107,19.40349],[-99.1843,19.40782],[-99.17776,19.41928],[-99.17654,19.42045],[-99.17565,19.42259],[-99.17505,19.42304],[-99.17763,19.42359],[-99.16848,19.43815],[-99.16577,19.44365],[-99.16432,19.44998],[-99.16315,19.45888],[-99.16086,19.46119],[-99.15944,19.46342],[-99.15757,19.46408],[-99.15031,19.46296],[-99.14524,19.46431],[-99.14192,19.46582],[-99.1408,19.46535],[-99.13333,19.46485]]]}},{"type":"Feature","properties":{"cvegeo":"09016","nombre":"Miguel Hidalgo","label_lat":19.42966,"label_lng":-99.19867},"geometry":{"type":"Polygon","coordinates":[[[-99.19044,19.47044],[-99.19072,19.46467],[-99.18799,19.46381],[-99.18848,19.46077],[-99.16371,19.45643],[-99.16432,19.44998],[-99.16577,19.44365],[-99.16848,19.43815],[-99.17763,19.42359],[-99.17505,19.42304],[-99.17565,19.42259],[-99.17654,19.42045],[-99.17776,19.41928],[-99.1843,19.40782],[-99.17107,19.40349],[-99.17043,19.39979],[-99.17552,19.39809],[-99.18209,19.39696],[-99.18409,19.39615],[-99.18905,19.39559],[-99.19061,19.39932],[-99.19222,19.40113],[-99.19219,19.40374],[-99.19761,19.40309],[-99.20189,19.40155],[-99.2105,19.40042],[-99.22357,19.39585],[-99.22734,19.39579],[-99.23257,19.3949],[-99.23603,19.39356],[-99.23783,19.39349],[-99.23891,19.39267],[-99.23901,19.39073],[-99.23992,19.38886],[-99.24267,19.38703],[-99.24547,19.38739],[-99.24764,19.38595],[-99.24832,19.38768],[-99.24852,19.39041],[-99.24695,19.39266],[-99.24703,19.39418],[-99.24798,19.39427],[-99.24924,19.39342],[-99.25255,19.39352],[-99.25475,19.39521],[-99.25435,19.39414],[-99.25483,19.3937],[-99.25666,19.39286],[-99.25921,19.39256],[-99.25962,19.39431],[-99.25568,19.39726],[-99.25522,19.40151],[-99.2558,19.40357],[-99.25485,19.40455],[-99.25093,19.40641],[-99.2483,19.40865],[-99.24422,19.40994],[-99.24082,19.41192],[-99.2373,19.41236],[-99.23544,19.41543],[-99.23424,19.41669],[-99.2336,19.41658],[-99.23297,19.41939],[-99.23181,19.41999],[-99.23084,19.4217],[-99.22938,19.4222],[-99.22772,19.42418],[-99.22701,19.42432],[-99.22546,19.42658],[-99.22446,19.42708],[-99.2228,19.42636],[-99.22227,19.42702],[-99.22337,19.4295],[-99.22681,19.43134],[-99.22616,19.43396],[-99.22742,19.43494],[-99.22728,19.43586],[-99.22815,19.43604],[-99.22853,19.43681],[-99.22962,19.43737],[-99.22058,19.44367],[-99.21813,19.44411],[-99.21953,19.44501],[-99.22014,19.44611],[-99.21997,19.45288],[-99.21736,19.45367],[-99.21528,19.45622],[-99.21393,19.4604],[-99.21262,19.46245],[-99.21354,19.46292],[-99.21153,19.46799],[-99.20885,19.47008],[-99.20717,19.46957],[-99.20682,19.47121],[-99.20496,19.47219],[-99.20101,19.47336],[-99.19044,19.47044]]]}},{"type":"Feature","properties":{"cvegeo":"09017","nombre":"Venustiano Carranza","label_lat":19.43239,"label_lng":-99.08806},"geometry":{"type":"Polygon","coordinates":[[[-99.11185,19.45383],[-99.10079,19.44983],[-99.09489,19.45172],[-99.09344,19.45168],[-99.08715,19.44576],[-99.08087,19.45015],[-99.07809,19.44974],[-99.06228,19.44479],[-99.05256,19.44842],[-99.05086,19.45018],[-99.04645,19.44236],[-99.05055,19.43472],[-99.05578,19.42214],[-99.05791,19.42088],[-99.06794,19.4208],[-99.06949,19.42025],[-99.07797,19.40714],[-99.08022,19.40688],[-99.09796,19.40914],[-99.11456,19.40561],[-99.1188,19.40551],[-99.12569,19.40433],[-99.12819,19.41376],[-99.12713,19.42038],[-99.126,19.42287],[-99.12315,19.44158],[-99.12311,19.44266],[-99.12592,19.44762],[-99.12332,19.45815],[-99.12223,19.45978],[-99.1175,19.45817],[-99.11185,19.45383]]]}}]}